STARLINK-37313          
1 68790U 26086AA  26117.74417191 -.00713478  16829-3 -17076-2 0  9997
2 68790  97.2774 153.1995 0000494 166.5451 193.5839 15.96533186  1215
