{
  "norad_id": 68790,
  "name": "STARLINK-37313",
  "history": [
    {
      "epoch": "2026-04-27T17:51:36.453024Z",
      "apogee_km": 284.37525339304284,
      "perigee_km": 283.7162302762208,
      "latitude_deg": 1.4481773092243686e-05,
      "longitude_deg": 29.568019365746125,
      "height_km": 287.5632129219244,
      "semi_major_axis_km": 6662.182741834631,
      "eccentricity": 4.946e-05,
      "inclination_deg": 97.2774,
      "raan_deg": 153.1995,
      "arg_perigee_deg": 166.5451,
      "mean_anomaly_deg": 193.5839,
      "mean_motion_rev_day": 15.96533186
    }
  ]
}